OBJECT_NAME,OBJECT_ID,EPOCH,MEAN_MOTION,ECCENTRICITY,INCLINATION,RA_OF_ASC_NODE,ARG_OF_PERICENTER,MEAN_ANOMALY,EPHEMERIS_TYPE,CLASSIFICATION_TYPE,NORAD_CAT_ID,ELEMENT_SET_NO,REV_AT_EPOCH,BSTAR,MEAN_MOTION_DOT,MEAN_MOTION_DDOT
DONGPO 10,2022-167H,2026-05-20T22:30:29.352672,15.33834701,.00048095,97.6932,309.9388,194.6596,165.4507,0,U,54689,999,19118,.23056118E-3,.7462E-4,0
JILIN-1 GAOFEN 03D48,2022-167P,2026-05-20T22:46:24.515904,15.34572807,.00060757,97.6866,309.3198,201.9879,158.1104,0,U,54695,999,19121,.23507092E-3,.7793E-4,0
STAR VIBE,2023-001A,2026-05-20T23:36:37.010880,15.41790795,.00054696,97.3179,205.3522,194.6413,165.4676,0,U,55009,999,18803,.23303959E-3,.9784E-4,0
BRO-8,2023-001C,2026-05-20T23:10:52.887360,15.47255696,.0005779,97.3223,205.7924,201.7814,158.3191,0,U,55011,999,18799,.41087831E-3,.20874E-3,0
CONNECTA T1.2,2023-001D,2026-05-20T22:06:17.231328,15.48563973,.00066322,97.3283,211.1685,179.3895,180.7365,0,U,55012,999,18832,.50777514E-3,.27044E-3,0
BIRKELAND,2023-001G,2026-05-20T22:01:23.804832,15.39544743,.00066298,97.3350,208.8269,188.1708,171.9431,0,U,55015,999,18815,.17218685E-3,.6688E-4,0
ION SCV-008,2023-001AU,2026-05-20T17:46:18.329952,15.28196372,.00164864,97.5695,236.6099,108.8312,251.4717,0,U,55051,999,18714,.17222861E-3,.4672E-4,0
ION SCV-007,2023-001BD,2026-05-20T21:45:07.331040,14.77524808,.00136617,97.9020,204.4607,67.1800,293.0852,0,U,55060,999,18222,.43763833E-4,.262E-5,0
HUYGENS,2023-001CN,2026-05-20T22:01:31.089216,15.39542422,.00100649,97.3256,208.0921,171.4088,188.7333,0,U,55093,999,18817,.16331329E-3,.6344E-4,0
SHARJAHSAT-1,2023-001CZ,2026-05-20T23:19:57.675648,15.47964859,.00059744,97.3179,209.3818,183.8531,176.2674,0,U,55104,999,18828,.25211192E-3,.1308E-3,0
HORUS 1,2023-025A,2026-05-20T23:02:07.787040,15.23274020,.00010983,97.3464,216.1256,135.3742,224.7583,0,U,55690,999,17990,.16769047E-3,.3905E-4,0
HORUS 2,2023-032A,2026-05-20T22:18:47.484000,15.23456146,.00031195,97.3534,216.8753,131.0492,229.1015,0,U,55844,999,17733,.16300305E-3,.3815E-4,0
GLOBAL-19,2023-041B,2026-05-20T21:29:43.194048,15.38430971,.00055578,42.0028,1.1126,163.3711,196.7312,0,U,55982,999,17772,.26008567E-3,.9832E-4,0
BRO-9,2023-054H,2026-05-21T07:30:24.580800,15.84247007,.0007892,97.2970,57.7644,117.6355,242.5717,0,U,56185,999,17481,.88193E-3,.20298E-2,0
ION SCV-010,2023-054Q,2026-05-20T22:45:38.686752,15.25928328,.001136,97.3810,30.7971,306.2818,53.7371,0,U,56192,999,17204,.1253111E-3,.3147E-4,0
TELEOS-2,2023-057C,2026-05-21T07:05:39.770016,14.96370491,.0000923,9.9892,39.9734,260.1874,99.8236,0,U,56310,999,16876,.17767E-3,.2755E-4,0
SNIPE 4,2023-072B,2026-05-20T22:54:59.008032,15.41169786,.00068948,97.5276,346.1172,72.3896,287.8103,0,U,56744,999,16591,.35341905E-3,.14588E-3,0
SNIPE 2,2023-072C,2026-05-20T22:40:22.868832,15.45346424,.00064017,97.5271,348.9680,97.3963,262.8013,0,U,56745,999,16603,.38479604E-3,.18296E-3,0
2023-072G,2023-072G,2026-05-20T22:39:52.328160,15.48905860,.00055224,97.4928,347.7436,88.9321,271.2562,0,U,56749,999,16624,.36636365E-3,.19696E-3,0
GEISAT PRECURSOR,2023-084C,2026-05-20T21:28:53.696352,15.34231036,.00071696,97.6193,280.9646,87.1622,273.0440,0,U,56934,999,16334,.1648236E-3,.538E-4,0
BLACKJACK ACES-3,2023-084U,2026-05-20T22:52:11.042112,15.18280349,.00040648,97.6178,275.9469,99.6719,260.4974,0,U,56950,999,16303,.15842472E-3,.3177E-4,0
BLACKJACK ACES-2,2023-084Z,2026-05-20T19:51:45.893664,15.18222016,.0002223,97.6177,275.9055,91.9734,268.1754,0,U,56955,999,16302,.1517342E-3,.3035E-4,0
BLACKJACK ACES-1,2023-084AA,2026-05-20T22:44:14.429472,15.18206643,.00015162,97.6168,275.8034,94.9387,265.2020,0,U,56956,999,11276,.21703364E-3,.4369E-4,0
ION SCV-011,2023-084AB,2026-05-20T23:12:56.887776,15.28545440,.00083637,98.1385,325.7312,127.0595,233.1408,0,U,56957,999,16165,.13614788E-3,.3696E-4,0
GHOST-3,2023-084AC,2026-05-20T22:31:55.650720,15.46900962,.0006658,97.6191,288.0755,43.1329,317.0441,0,U,56958,999,16380,.24567977E-3,.12277E-3,0
TOMORROW-R2,2023-084AG,2026-05-20T10:15:56.304000,15.90533549,.00026874,97.5949,301.0233,268.1033,91.9932,0,U,56962,999,16462,.51507315E-3,.156679E-2,.11179496E-4
AFR-1,2023-084AJ,2026-05-20T22:21:59.707584,15.28291045,.00119898,97.6241,276.9786,77.9143,282.3438,0,U,56964,999,16306,.1243524E-3,.3354E-4,0
METEOR-M2 3,2023-091A,2026-05-20T23:27:10.245024,14.24044164,.00028983,98.6097,196.5095,240.4071,119.6819,0,U,57166,999,15064,.11379887E-4,-.17E-6,0
UMKA 1 (RS40S),2023-091G,2026-05-20T22:00:28.609056,15.20463412,.00121692,97.5062,199.7238,207.7637,152.2950,0,U,57172,999,15986,.18919128E-3,.4067E-4,0
2023-091H,2023-091H,2026-05-20T22:42:01.967904,15.27973020,.00096189,97.5057,203.9289,200.3889,159.6968,0,U,57173,999,16014,.27738413E-3,.7505E-4,0
