DONGPO 10               
1 54689U 22167H   26140.93783973  .00007462  00000+0  23056-3 0  9999
2 54689  97.6932 309.9388 0004809 194.6596 165.4507 15.33834701191184
JILIN-1 GAOFEN 03D48    
1 54695U 22167P   26140.94889486  .00007793  00000+0  23507-3 0  9991
2 54695  97.6866 309.3198 0006075 201.9879 158.1104 15.34572807191216
STAR VIBE               
1 55009U 23001A   26140.98376170  .00009784  00000+0  23304-3 0  9991
2 55009  97.3179 205.3522 0005469 194.6413 165.4676 15.41790795188031
BRO-8                   
1 55011U 23001C   26140.96588990  .00020874  00000+0  41088-3 0  9999
2 55011  97.3223 205.7924 0005779 201.7814 158.3191 15.47255696187992
CONNECTA T1.2           
1 55012U 23001D   26140.92103277  .00027044  00000+0  50778-3 0  9999
2 55012  97.3283 211.1685 0006632 179.3895 180.7365 15.48563973188323
BIRKELAND               
1 55015U 23001G   26140.91763663  .00006688  00000+0  17219-3 0  9996
2 55015  97.3350 208.8269 0006629 188.1708 171.9431 15.39544743188150
ION SCV-008             
1 55051U 23001AU  26140.74048993  .00004672  00000+0  17223-3 0  9995
2 55051  97.5695 236.6099 0016486 108.8312 251.4717 15.28196372187144
ION SCV-007             
1 55060U 23001BD  26140.90633485  .00000262  00000+0  43764-4 0  9990
2 55060  97.9020 204.4607 0013661  67.1800 293.0852 14.77524808182227
HUYGENS                 
1 55093U 23001CN  26140.91772094  .00006344  00000+0  16331-3 0  9993
2 55093  97.3256 208.0921 0010064 171.4088 188.7333 15.39542422188173
SHARJAHSAT-1            
1 55104U 23001CZ  26140.97219532  .00013080  00000+0  25211-3 0  9997
2 55104  97.3179 209.3818 0005974 183.8531 176.2674 15.47964859188286
HORUS 1                 
1 55690U 23025A   26140.95981235  .00003905  00000+0  16769-3 0  9990
2 55690  97.3464 216.1256 0001098 135.3742 224.7583 15.23274020179909
HORUS 2                 
1 55844U 23032A   26140.92971625  .00003815  00000+0  16300-3 0  9999
2 55844  97.3534 216.8753 0003119 131.0492 229.1015 15.23456146177333
GLOBAL-19               
1 55982U 23041B   26140.89563882  .00009832  00000+0  26009-3 0  9992
2 55982  42.0028   1.1126 0005557 163.3711 196.7312 15.38430971177726
BRO-9                   
1 56185U 23054H   26141.31278450  .00202980  00000+0  88193-3 0  9995
2 56185  97.2970  57.7644 0007892 117.6355 242.5717 15.84247007174815
ION SCV-010             
1 56192U 23054Q   26140.94836443  .00003147  00000+0  12531-3 0  9990
2 56192  97.3810  30.7971 0011360 306.2818  53.7371 15.25928328172044
TELEOS-2                
1 56310U 23057C   26141.29559919  .00002755  00000+0  17767-3 0  9994
2 56310   9.9892  39.9734 0000923 260.1874  99.8236 14.96370491168760
SNIPE 4                 
1 56744U 23072B   26140.95484963  .00014588  00000+0  35342-3 0  9996
2 56744  97.5276 346.1172 0006894  72.3896 287.8103 15.41169786165919
SNIPE 2                 
1 56745U 23072C   26140.94470913  .00018296  00000+0  38480-3 0  9992
2 56745  97.5271 348.9680 0006401  97.3963 262.8013 15.45346424166032
2023-072G               
1 56749U 23072G   26140.94435565  .00019696  00000+0  36636-3 0  9996
2 56749  97.4928 347.7436 0005522  88.9321 271.2562 15.48905860166241
GEISAT PRECURSOR        
1 56934U 23084C   26140.89506593  .00005380  00000+0  16482-3 0  9991
2 56934  97.6193 280.9646 0007169  87.1622 273.0440 15.34231036163343
BLACKJACK ACES-3        
1 56950U 23084U   26140.95290558  .00003177  00000+0  15842-3 0  9998
2 56950  97.6178 275.9469 0004064  99.6719 260.4974 15.18280349163038
BLACKJACK ACES-2        
1 56955U 23084Z   26140.82761451  .00003035  00000+0  15173-3 0  9994
2 56955  97.6177 275.9055 0002223  91.9734 268.1754 15.18222016163027
BLACKJACK ACES-1        
1 56956U 23084AA  26140.94738923  .00004369  00000+0  21703-3 0  9993
2 56956  97.6168 275.8034 0001516  94.9387 265.2020 15.18206643112762
ION SCV-011             
1 56957U 23084AB  26140.96732509  .00003696  00000+0  13615-3 0  9995
2 56957  98.1385 325.7312 0008363 127.0595 233.1408 15.28545440161658
GHOST-3                 
1 56958U 23084AC  26140.93883855  .00012277  00000+0  24568-3 0  9998
2 56958  97.6191 288.0755 0006658  43.1329 317.0441 15.46900962163800
TOMORROW-R2             
1 56962U 23084AG  26140.42773500  .00156679  11179-4  51507-3 0  9994
2 56962  97.5949 301.0233 0002687 268.1033  91.9932 15.90533549164627
AFR-1                   
1 56964U 23084AJ  26140.93194106  .00003354  00000+0  12435-3 0  9995
2 56964  97.6241 276.9786 0011989  77.9143 282.3438 15.28291045163068
METEOR-M2 3             
1 57166U 23091A   26140.97720191 -.00000017  00000+0  11380-4 0  9994
2 57166  98.6097 196.5095 0002898 240.4071 119.6819 14.24044164150647
UMKA 1 (RS40S)          
1 57172U 23091G   26140.91699779  .00004067  00000+0  18919-3 0  9994
2 57172  97.5062 199.7238 0012169 207.7637 152.2950 15.20463412159864
2023-091H               
1 57173U 23091H   26140.94585611  .00007505  00000+0  27738-3 0  9996
2 57173  97.5057 203.9289 0009618 200.3889 159.6968 15.27973020160147
